#dP2023  4 20  6  0  0.00000000      96 __u+U ITR00 EXT  IAC
## 2258 367200.00000000   900.00000000 60054 0.2500000000000
+  119   C06C07C08C09C10C11C12C13C14C16C19C20C21C22C23C24C25
+        C26C27C28C29C30C32C33C34C35C36C37C38C39C40C41C42C43
+        C44C45C46E01E02E03E04E05E07E08E10E11E12E13E14E15E18
+        E19E21E24E25E26E27E30E31E33E34E36G01G02G03G04G05G06
+        G07G08G09G10G11G12G13G14G15G16G17G18G19G20G21G22G23
+        G24G25G26G27G28G29G30G31G32J02J03J04R01R02R03R04R05
+        R07R08R09R11R12R13R14R15R16R17R18R19R20R21R22R24R25
++        10  8  8  9  8  8  9 10 10 10  8  8  8  9  9  9 10
++         9 11  8  8  9  7  8  9  9  9 10 11  9 10 10  9  9
++         8  9  8  8  8  8  8  8  8  8  7  8  8  8  8  7 10
++         8  8  8  8  8  8  7  8  8  8  8  7  7  8  7  7  7
++         8  7  8 10 10  8  8  7  8  7  7 10  8  7  7  7  7
++         7  7  7  8  7  8  7  8  7  9  9  8  9  7  8  8  8
++         7  7  7  9  9  8  9  9  8  7 11  8 10  9  8  8  9
%c M  cc GPS ccc cccc cccc cccc cccc ccccc ccccc ccccc ccccc
%c cc cc ccc ccc cccc cccc cccc cccc ccccc ccccc ccccc ccccc
%f  0.0000000  0.000000000  0.00000000000  0.000000000000000
%f  0.0000000  0.000000000  0.00000000000  0.000000000000000
%i    0    0    0    0      0      0      0      0         0
%i    0    0    0    0      0      0      0      0         0
/* IAC                                ULTRA-RAPID PREDICTION
/* S/V CLOCKS ARE ALIGNED TO GNSS TIME                      
/* G:C1WC2W R:C1PC2P E:C1XC5X C:C2IC6I J:C1CC2S             
/* PCV:IGS20_2247 OL/AL:FES2004  NONE     YN ORB:CoN CLK:CoN
*  2023 04 20 20 30  0.00000000
PC06  -7271.453966  23568.940940  34233.464077   -196.556975
PC07 -17771.804954  36564.556445 -11493.213906     98.758860
PC08  -1521.553524  37160.300209 -19697.476009    501.393899
PC09   3466.959558  26428.662339  33205.883653    744.448472
PC10 -11019.417718  36825.273428 -17614.919485    -38.222633
PC11 -23438.242571 -10394.705627  11096.374848    311.405537
PC12  -6227.485179 -15600.924489  22316.082010    585.033261
PC13   3300.189266  39711.650261 -13237.616742    257.242079
PC14 -13405.333308  -8337.528170 -22989.891232    150.210771
PC16 -10606.368926  21980.659207  34596.778423    103.294291
PC19  18474.285631  -1465.369447  20886.244890   -902.728117
PC20   7393.176406  15517.879914  22009.561383    614.364478
PC21   9090.227355 -24441.288912  -9873.589015   -910.702712
PC22  19478.872645 -18451.880240   7616.587198   -526.184660
PC23 -13417.400883   9630.973468  22495.833633   -910.005196
PC24 -12948.681847 -24639.959427   2141.019226   -147.499232
PC25 -19029.398930  -9250.131161  18194.880539    110.679307
PC26  -1172.911864 -24467.177667 -13415.158375   -109.119767
PC27  -3631.854537  15606.668997 -22869.071848    128.558087
PC28 -21204.884920   8830.168094 -15846.582190     94.762896
PC29  27662.827540   3180.311549  -1900.547525    109.808418
PC30  16504.753483  13647.568701 -17914.415450      0.272556
PC32  -8928.840350  24553.241248   9853.267738   -575.423396
PC33 -18462.532137   1537.125986 -20865.630257   -874.799681
PC34 -17661.845625 -13212.944064  17064.238932    153.333767
PC35  21576.740571  -9156.916201  15162.712844    642.376105
PC36  18810.475423  10417.022443 -17764.436619   -488.913271
PC37   -393.866727  23910.307504  14377.523297   -788.259155
PC38  -7539.518398  32693.053564 -25423.799550     73.092728
PC39 -16283.998155  20070.675166  33324.160314     -2.636537
PC40 -24700.046914  32606.115070 -10745.777749    -20.929416
PC41 -19568.067508  18142.405071  -8130.574962   -876.144535
PC42  -6376.287140 -16531.731172 -21501.962687   -727.704506
PC43 -27505.862481  -3774.846174   2666.327166     17.646735
PC44   3343.736097 -15823.488637  22727.081353     82.144683
PC45  13048.959688 -10061.943747 -22525.792094    -87.606230
PC46  13786.550267  23954.244339  -3716.985152    -48.418768
PE01  -2438.786943  29434.187558  -1937.653608      3.387770
PE02   2134.115514 -29435.406410   2378.216300     33.521437
PE03   3978.166413 -18856.830375 -22458.593049   -671.191237
PE04  16465.606247  10135.100717  22425.636576   -104.962684
PE05  22615.778586 -16695.451176  -9257.597476    -74.887062
PE07 -27705.347341   4655.878075  -9327.129736    -39.113872
PE08 -16213.366418 -10132.388278 -22592.459518    -70.571643
PE10  25307.122031  14221.872055   5786.221072   -527.942748
PE11  24602.470937   6110.241942  15288.809792   1672.793625
PE12  21975.440543  19503.359736  -3705.121966   -506.630262
PE13 -24785.591220  -6752.715737 -14693.163588    -18.699766
PE14   4146.169138 -16126.441274  16967.109802    202.797780
PE15 -21820.099204 -19575.578889   4056.199655    -16.018380
PE18  -9526.968454  21740.501439 -21781.539191   -142.492190
PE19  -7005.486116  19145.329827  21473.778748  -2718.679550
PE21 -12920.098653  22220.727747  14673.017171   -524.538721
PE24  16956.674598   -822.911392 -24267.788219    -55.284466
PE25  13070.085163 -21962.497444 -14937.259793   -603.648667
PE26 -12618.218334  10578.248788 -24596.467189     81.091533
PE27 -16943.043472   1754.394535  24204.766603    -30.019262
PE30 -10594.432050 -20080.467553  18985.045111   -109.113281
PE31  10944.525071  19513.986700 -19376.529996   -521.834184
PE33   6013.331908  20743.362375 -20248.344064   -445.860143
PE34  -6193.627859 -20768.587101  20153.145237    -41.268932
PE36  13218.051559  -9840.924283  24589.968770    -44.347286
PG01  21938.681559  14201.933794   5374.513652    191.610852
PG02 -18751.491330   2108.871995 -18142.246636   -604.090246
PG03  13248.057992   8115.413151  21432.968092   -324.349143
PG04  22936.079160   2179.533406  13325.914369     21.703738
PG05  -6234.121170 -22389.489740 -12916.709316   -124.167086
PG06   4851.677250 -14581.182268  21710.736006    587.388975
PG07  20661.458745   1999.688432 -16391.709311    196.854319
PG08  13836.432155   9975.410464 -20523.894351   -118.704180
PG09  25324.855843  -7021.328508   3934.118256   -175.849466
PG10 -11101.114470  21182.888005 -11037.475132    -33.660049
PG11  -8579.983024 -20964.700977  13905.868288   -169.205406
PG12 -11816.089456 -11525.957096  20545.866745   -366.358468
PG13  -5560.499953 -14191.174275 -21938.165118    508.649762
PG14  13418.404866 -18670.539521 -13163.156451     31.254220
PG15 -15396.764468  -8828.957860 -20285.160228     32.412733
PG16   1532.358682  24034.893976 -10972.248877   -507.362794
PG17  20477.607760 -13647.354877  10556.194572    711.494863
PG18 -18317.140334   1464.000240 -19233.089071   -232.812599
PG19  13014.769240 -15249.698881  17041.634736    306.315337
PG20  -2126.729795 -26408.721156  -3015.720200    437.927083
PG21  20964.991758  16757.785980  -2578.672321    154.149414
PG22  -9117.907066  16408.646735  19174.645950    467.670534
PG23 -14775.948050  10504.629613 -19352.527966     18.231410
PG24 -22163.066145 -15034.486781    335.157359   -159.332905
PG25 -15428.928357    961.563401  21261.224968    437.084661
PG26  -4432.515008  25876.922614   2408.221395    241.599577
PG27   1843.358975  15344.231506 -21807.632195     54.538708
PG28  -6495.336001  14000.567728  21590.206978     68.048316
PG29 -25477.632659   2153.859326   7297.998817   -596.325157
PG30  12955.599082  -9405.600868 -21110.103775   -521.386058
PG31    992.738789  18441.612710  18756.651904   -214.414807
PG32 -17570.023363  15783.859418  12128.273840   -456.676027
PJ02 -29157.665378  26823.693926  19315.066710     -1.594766
PJ03 -28748.882549  15792.631961 -21882.867871      2.643509
PJ04 -24607.575970  33405.537925  -2785.969577     94.231568
PR01  14114.383927 -19753.629560  -7792.336166     27.043136
PR02    297.950008 -14061.727846 -21244.627339    -22.925632
PR03 -13771.828825   -728.784297 -21393.379245     76.384116
PR04 -19840.123767  12692.721999  -9748.224838    184.094531
PR05 -15228.201948  19138.376907   7226.785490    111.282079
PR07  14345.673964     23.750074  21149.606678     54.247239
PR08  19847.836297 -12839.325024   9684.919151    -70.433979
PR09   7939.449516  24181.244319  -2236.131278    115.819325
PR11  10373.291511  -3458.117772 -23036.743220    -39.810275
PR12   1883.696150 -20761.959007 -14688.024593     26.605764
PR13  -6836.675943 -24573.094177    360.525516    -34.194240
PR14 -12442.223274 -13634.732022  17605.294623     24.579029
PR15 -10160.788888   4708.357956  22935.128096     89.689064
PR16  -1828.265249  20548.291540  15033.102359     13.748921
PR17 -23731.150602  -8649.507981   3686.519187    622.978976
PR18 -22082.547954   -698.308892 -12687.739375     77.539258
PR19 -10692.432813   6806.272196 -22139.499873   -229.777307
PR20  10945.846437  12672.896905 -19257.087009    -91.498870
PR21  24081.309837   8133.578722  -2026.611896     -1.493372
PR22  21728.365205    723.540034  13381.614722     80.214078
PR24 -11811.101893 -12679.977796  18733.829914    163.562106
PR25  23200.513821   9855.820257  -3856.153078     62.919314
EOF
